DMSP 5D-3 F16 (USA 172) 
1 28054U 03048A   26095.29588764  .00000163  00000+0  10875-3 0  9998
2 28054  98.9960 118.6211 0006975   3.1082   7.7462 14.14472811159186
METEOSAT-9 (MSG-2)      
1 28912U 05049B   26095.04107203  .00000127  00000+0  00000+0 0  9997
2 28912   9.1978  54.8716 0000252  23.6641 175.2828  1.00279027  6265
DMSP 5D-3 F17 (USA 191) 
1 29522U 06050A   26095.26589140  .00000234  00000+0  14333-3 0  9993
2 29522  98.7409 103.3221 0008898 263.7481  96.2679 14.14976703  2110
FENGYUN 3A              
1 32958U 08026A   26095.09643484  .00000154  00000+0  93579-4 0  9999
2 32958  98.6833  37.3188 0008454 346.0992  13.9950 14.19554927925033
GOES 14                 
1 35491U 09033A   26095.13943910  .00000047  00000+0  00000+0 0  9998
2 35491   1.5015  83.9263 0001834 297.7320  44.8442  1.00111950  5855
DMSP 5D-3 F18 (USA 210) 
1 35951U 09057A   26095.23186204  .00000333  00000+0  19562-3 0  9996
2 35951  98.9001  76.1793 0012201  97.2885 262.9675 14.14854022849278
EWS-G2 (GOES 15)        
1 36411U 10008A   26095.11577899  .00000024  00000+0  00000+0 0  9997
2 36411   1.0857  84.2910 0003366  17.7221 196.3649  1.00271739 58900
COMS 1                  
1 36744U 10032A   26095.27125667 -.00000341  00000+0  00000+0 0  9995
2 36744   4.6166  76.3679 0001336 324.7451  18.2685  1.00272253 50351
FENGYUN 3B              
1 37214U 10059A   26095.32201597  .00000362  00000+0  21079-3 0  9995
2 37214  98.9705 141.0003 0022686  35.7203  27.0002 14.14826430797120
SUOMI NPP               
1 37849U 11061A   26095.24606866  .00000137  00000+0  85859-4 0  9999
2 37849  98.7904  36.6421 0002049 142.5803 217.5516 14.19501168748091
METEOSAT-10 (MSG-3)     
1 38552U 12035B   26095.24586322 -.00000004  00000+0  00000+0 0  9991
2 38552   4.4996  61.3216 0002412 296.9339 283.8759  1.00273516 50121
METOP-B                 
1 38771U 12049A   26095.26400858  .00000183  00000+0  10352-3 0  9992
2 38771  98.6584 148.1921 0002474 169.7239 190.3990 14.21427867702909
INSAT-3D                
1 39216U 13038B   26095.27151667 -.00000337  00000+0  00000+0 0  9995
2 39216   1.7378  83.4509 0001745 266.9238  70.4323  1.00271699 46342
FENGYUN 3C              
1 39260U 13052A   26095.24951932  .00000163  00000+0  10432-3 0  9990
2 39260  98.4931  72.4966 0013691 230.6529 129.3433 14.15737897648248
METEOR-M 2              
1 40069U 14037A   26095.22093029  .00000344  00000+0  17680-3 0  9998
2 40069  98.5065  73.5665 0004555 245.9546 114.1155 14.21440272608953
HIMAWARI-8              
1 40267U 14060A   26095.27368333 -.00000274  00000+0  00000+0 0  9999
2 40267   0.0166 178.9139 0001010 185.4512  68.3911  1.00273836 42026
FENGYUN 2G              
1 40367U 14090A   26095.25129300 -.00000300  00000+0  00000+0 0  9990
2 40367   5.4547  73.6840 0002385 135.5167 174.1867  1.00291385 41267
